[{"OBJECT_NAME":"JB-3 3 (ZY 2C)","OBJECT_ID":"2004-044A","EPOCH":"2026-03-09T22:02:57.764832","MEAN_MOTION":15.18506021,"ECCENTRICITY":0.00333938,"INCLINATION":97.2622,"RA_OF_ASC_NODE":226.2642,"ARG_OF_PERICENTER":206.2478,"MEAN_ANOMALY":153.7066,"EPHEMERIS_TYPE":0,"CLASSIFICATION_TYPE":"U","NORAD_CAT_ID":28470,"ELEMENT_SET_NO":999,"REV_AT_EPOCH":17271,"BSTAR":0.00032413866,"MEAN_MOTION_DOT":6.719e-5,"MEAN_MOTION_DDOT":0},{"OBJECT_NAME":"TIANYI D","OBJECT_ID":"2025-103D","EPOCH":"2026-03-09T23:34:58.761120","MEAN_MOTION":15.17585696,"ECCENTRICITY":0.00029978,"INCLINATION":97.3899,"RA_OF_ASC_NODE":142.5822,"ARG_OF_PERICENTER":153.0168,"MEAN_ANOMALY":207.1222,"EPHEMERIS_TYPE":0,"CLASSIFICATION_TYPE":"U","NORAD_CAT_ID":64051,"ELEMENT_SET_NO":999,"REV_AT_EPOCH":4495,"BSTAR":0.00030791157,"MEAN_MOTION_DOT":6.122e-5,"MEAN_MOTION_DDOT":0}]
